{
  "type": "FeatureCollection",
  "features": [
    {
      "type": "Feature",
      "properties": {
        "norad_id": 33376,
        "name": "GALAXY 19 (G-19)",
        "group": "intelsat",
        "lat": -0.02493804314434618,
        "lon": -71.6177393669259,
        "alt_km": 35772.82640788888,
        "timestamp": "2025-12-06T20:37:55.726979+00:00",
        "meta_object_name": "GALAXY 19 (G-19)",
        "meta_object_id": "2008-045A",
        "meta_epoch": "2025-12-06T10:57:14.757120",
        "meta_mean_motion": 1.00270674,
        "meta_eccentricity": 0.00034498,
        "meta_inclination": 0.0219,
        "meta_ra_of_asc_node": 61.069,
        "meta_arg_of_pericenter": 205.7865,
        "meta_mean_anomaly": 235.9559,
        "meta_ephemeris_type": 0,
        "meta_classification_type": "U",
        "meta_norad_cat_id": 33376,
        "meta_element_set_no": 999,
        "meta_rev_at_epoch": 6297,
        "meta_bstar": 0,
        "meta_mean_motion_dot": -1.32e-06,
        "meta_mean_motion_ddot": 0,
        "tle_line1": "1 33376U 08045A   25340.45642080 -.00000132  00000+0  00000+0 0  9997",
        "tle_line2": "2 33376   0.0219  61.0690 0003449 205.7865 235.9559  1.00270674 62970"
      },
      "geometry": {
        "type": "Point",
        "coordinates": [
          -71.6177393669259,
          -0.02493804314434618
        ]
      }
    },
    {
      "type": "Feature",
      "properties": {
        "norad_id": 35493,
        "name": "FM-5",
        "group": "intelsat",
        "lat": -0.0057028137668242666,
        "lon": -60.762707361789204,
        "alt_km": 35784.24967897992,
        "timestamp": "2025-12-06T20:37:55.726991+00:00",
        "meta_object_name": "FM-5",
        "meta_object_id": "2009-034A",
        "meta_epoch": "2025-12-06T09:49:56.606016",
        "meta_mean_motion": 1.00277404,
        "meta_eccentricity": 7.364e-05,
        "meta_inclination": 0.0186,
        "meta_ra_of_asc_node": 289.1399,
        "meta_arg_of_pericenter": 285.1276,
        "meta_mean_anomaly": 282.5229,
        "meta_ephemeris_type": 0,
        "meta_classification_type": "U",
        "meta_norad_cat_id": 35493,
        "meta_element_set_no": 999,
        "meta_rev_at_epoch": 4471,
        "meta_bstar": 0,
        "meta_mean_motion_dot": -1.94e-06,
        "meta_mean_motion_ddot": 0,
        "tle_line1": "1 35493U 09034A   25340.40968294 -.00000194  00000+0  00000+0 0  9999",
        "tle_line2": "2 35493   0.0186 289.1399 0000736 285.1276 282.5229  1.00277404 44710"
      },
      "geometry": {
        "type": "Point",
        "coordinates": [
          -60.762707361789204,
          -0.0057028137668242666
        ]
      }
    },
    {
      "type": "Feature",
      "properties": {
        "norad_id": 36097,
        "name": "INTELSAT 14 (IS-14)",
        "group": "intelsat",
        "lat": 0.0020000056877052877,
        "lon": -19.59385173461275,
        "alt_km": 35784.59339725802,
        "timestamp": "2025-12-06T20:37:55.727004+00:00",
        "meta_object_name": "INTELSAT 14 (IS-14)",
        "meta_object_id": "2009-064A",
        "meta_epoch": "2025-12-06T10:01:40.482624",
        "meta_mean_motion": 1.00271178,
        "meta_eccentricity": 0.00027344,
        "meta_inclination": 0.0097,
        "meta_ra_of_asc_node": 338.1234,
        "meta_arg_of_pericenter": 280.7547,
        "meta_mean_anomaly": 282.0094,
        "meta_ephemeris_type": 0,
        "meta_classification_type": "U",
        "meta_norad_cat_id": 36097,
        "meta_element_set_no": 999,
        "meta_rev_at_epoch": 5867,
        "meta_bstar": 0,
        "meta_mean_motion_dot": -2.66e-06,
        "meta_mean_motion_ddot": 0,
        "tle_line1": "1 36097U 09064A   25340.41782966 -.00000266  00000+0  00000+0 0  9994",
        "tle_line2": "2 36097   0.0097 338.1234 0002734 280.7547 282.0094  1.00271178 58674"
      },
      "geometry": {
        "type": "Point",
        "coordinates": [
          -19.59385173461275,
          0.0020000056877052877
        ]
      }
    },
    {
      "type": "Feature",
      "properties": {
        "norad_id": 36106,
        "name": "INTELSAT 15 (IS-15)",
        "group": "intelsat",
        "lat": 0.028546616938604944,
        "lon": 110.50548887170991,
        "alt_km": 35795.543212079065,
        "timestamp": "2025-12-06T20:37:55.727016+00:00",
        "meta_object_name": "INTELSAT 15 (IS-15)",
        "meta_object_id": "2009-067A",
        "meta_epoch": "2025-12-06T12:21:34.583040",
        "meta_mean_motion": 1.00270382,
        "meta_eccentricity": 0.00025078,
        "meta_inclination": 0.0157,
        "meta_ra_of_asc_node": 334.0261,
        "meta_arg_of_pericenter": 284.9053,
        "meta_mean_anomaly": 87.1736,
        "meta_ephemeris_type": 0,
        "meta_classification_type": "U",
        "meta_norad_cat_id": 36106,
        "meta_element_set_no": 999,
        "meta_rev_at_epoch": 3929,
        "meta_bstar": 0,
        "meta_mean_motion_dot": -1.78e-06,
        "meta_mean_motion_ddot": 0,
        "tle_line1": "1 36106U 09067A   25340.51498360 -.00000178  00000+0  00000+0 0  9993",
        "tle_line2": "2 36106   0.0157 334.0261 0002507 284.9053  87.1736  1.00270382 39293"
      },
      "geometry": {
        "type": "Point",
        "coordinates": [
          110.50548887170991,
          0.028546616938604944
        ]
      }
    },
    {
      "type": "Feature",
      "properties": {
        "norad_id": 36131,
        "name": "DIRECTV 12",
        "group": "intelsat",
        "lat": -0.016842281592467687,
        "lon": -77.36871076546372,
        "alt_km": 35785.49068354569,
        "timestamp": "2025-12-06T20:37:55.727029+00:00",
        "meta_object_name": "DIRECTV 12",
        "meta_object_id": "2009-075A",
        "meta_epoch": "2025-12-06T10:54:16.380864",
        "meta_mean_motion": 1.00270908,
        "meta_eccentricity": 5.3e-05,
        "meta_inclination": 0.0504,
        "meta_ra_of_asc_node": 137.5191,
        "meta_arg_of_pericenter": 212.695,
        "meta_mean_anomaly": 146.1209,
        "meta_ephemeris_type": 0,
        "meta_classification_type": "U",
        "meta_norad_cat_id": 36131,
        "meta_element_set_no": 999,
        "meta_rev_at_epoch": 4462,
        "meta_bstar": 0,
        "meta_mean_motion_dot": -9.6e-07,
        "meta_mean_motion_ddot": 0,
        "tle_line1": "1 36131U 09075A   25340.45435626 -.00000096  00000+0  00000+0 0  9998",
        "tle_line2": "2 36131   0.0504 137.5191 0000530 212.6950 146.1209  1.00270908 44621"
      },
      "geometry": {
        "type": "Point",
        "coordinates": [
          -77.36871076546372,
          -0.016842281592467687
        ]
      }
    },
    {
      "type": "Feature",
      "properties": {
        "norad_id": 36397,
        "name": "INTELSAT 16 (IS-16)",
        "group": "intelsat",
        "lat": -0.008426030994554462,
        "lon": -50.803583803640116,
        "alt_km": 35778.110661085164,
        "timestamp": "2025-12-06T20:37:55.727041+00:00",
        "meta_object_name": "INTELSAT 16 (IS-16)",
        "meta_object_id": "2010-006A",
        "meta_epoch": "2025-12-06T11:07:49.147392",
        "meta_mean_motion": 1.00275053,
        "meta_eccentricity": 0.00024844,
        "meta_inclination": 0.0133,
        "meta_ra_of_asc_node": 313.3929,
        "meta_arg_of_pericenter": 308.207,
        "meta_mean_anomaly": 264.6636,
        "meta_ephemeris_type": 0,
        "meta_classification_type": "U",
        "meta_norad_cat_id": 36397,
        "meta_element_set_no": 999,
        "meta_rev_at_epoch": 5772,
        "meta_bstar": 0,
        "meta_mean_motion_dot": -2.38e-06,
        "meta_mean_motion_ddot": 0,
        "tle_line1": "1 36397U 10006A   25340.46376328 -.00000238  00000+0  00000+0 0  9990",
        "tle_line2": "2 36397   0.0133 313.3929 0002484 308.2070 264.6636  1.00275053 57722"
      },
      "geometry": {
        "type": "Point",
        "coordinates": [
          -50.803583803640116,
          -0.008426030994554462
        ]
      }
    },
    {
      "type": "Feature",
      "properties": {
        "norad_id": 37185,
        "name": "XM-5",
        "group": "intelsat",
        "lat": -0.02255725072502695,
        "lon": -89.80845687059887,
        "alt_km": 35788.41319972179,
        "timestamp": "2025-12-06T20:37:55.727054+00:00",
        "meta_object_name": "XM-5",
        "meta_object_id": "2010-053A",
        "meta_epoch": "2025-12-06T11:24:17.568576",
        "meta_mean_motion": 1.00271273,
        "meta_eccentricity": 0.00014141,
        "meta_inclination": 0.0612,
        "meta_ra_of_asc_node": 273.308,
        "meta_arg_of_pericenter": 245.2139,
        "meta_mean_anomaly": 332.8779,
        "meta_ephemeris_type": 0,
        "meta_classification_type": "U",
        "meta_norad_cat_id": 37185,
        "meta_element_set_no": 999,
        "meta_rev_at_epoch": 5555,
        "meta_bstar": 0,
        "meta_mean_motion_dot": -1.6e-07,
        "meta_mean_motion_ddot": 0,
        "tle_line1": "1 37185U 10053A   25340.47520334 -.00000016  00000+0  00000+0 0  9991",
        "tle_line2": "2 37185   0.0612 273.3080 0001414 245.2139 332.8779  1.00271273 55556"
      },
      "geometry": {
        "type": "Point",
        "coordinates": [
          -89.80845687059887,
          -0.02255725072502695
        ]
      }
    }
  ]
}